AMC-1 (GE-1)            
1 24315U 96054A   23055.43867580  .00000054  00000+0  00000+0 0  9992
2 24315   6.2166  70.9729 0003280 263.1525 206.9266  1.00273715 34205
AMC-3 (GE-3)            
1 24936U 97050A   23055.38363562 -.00000270  00000+0  00000+0 0  9994
2 24936   5.1616  77.0780 0003212 257.0595 245.9363  1.00271664 40312
ASTRA 1G                
1 25071U 97076A   23055.23536098  .00000104  00000+0  00000+0 0  9998
2 25071   6.8218  66.3112 0004206 267.1736 284.4536  1.00273293 92386
ASTRA 2A                
1 25462U 98050A   23055.19077041  .00000059  00000+0  00000+0 0  9997
2 25462   4.0347  82.8554 0003392 246.3818 310.3955  1.00271336 34219
AMC-4 (GE-4)            
1 25954U 99060A   23055.50119098 -.00000198  00000+0  00000+0 0  9994
2 25954   2.1248  87.2545 0002331 225.5728 195.4835  0.99136830 31430
NSS-11 (AAP-1)          
1 26554U 00059A   23055.33382851  .00000015  00000+0  00000+0 0  9998
2 26554   0.0528 296.0980 0002975  53.0623 100.9274  1.00274532 82057
AMC-6 (GE-6)            
1 26580U 00067A   23055.52453352  .00000096  00000+0  00000+0 0  9991
2 26580   0.0493 299.9568 0002325  54.2666 209.7107  1.00266579 81784
ASTRA 2D                
1 26638U 00081A   23055.28175812 -.00000086  00000+0  00000+0 0  9996
2 26638   7.8250  58.7712 0000801 345.7265  45.8636  0.99002995 40784
AMC-8 (GE-8)            
1 26639U 00081B   23055.52757865  .00000066  00000+0  00000+0 0  9995
2 26639   2.9979  87.0636 0005489 244.0450 236.4061  0.99149107 81202
ASTRA 2C                
1 26853U 01025A   23055.40139476 -.00000269  00000+0  00000+0 0  9997
2 26853   5.1857  76.8942 0003120 248.1921 260.9218  1.00273866 32928
NSS-7                   
1 27414U 02019A   23055.29925281 -.00000168  00000+0  00000+0 0  9997
2 27414   6.4871  69.1879 0002932 276.5831 255.8528  1.00271474 76446
NSS-6                   
1 27603U 02057A   23055.50674229  .00000098  00000+0  00000+0 0  9997
2 27603   2.2494  88.7466 0003428 247.7662 190.4837  1.00273698 73920
AMC-11 (GE-11)          
1 28252U 04017A   23055.54135550 -.00000059  00000+0  00000+0 0  9997
2 28252   0.0108 274.8161 0002607  37.7789 285.3532  1.00271218 68751
AMC-15                  
1 28446U 04041A   23055.54587987 -.00000098  00000+0  00000+0 0  9997
2 28446   0.0568 297.1039 0002594  37.7972 270.6879  1.00272254 67196
NSS-10 (AMC-12)         
1 28526U 05003A   23055.43923956 -.00000261  00000+0  00000+0 0  9995
2 28526   3.4097  84.6428 0003184 234.9119 315.1491  1.00271615 41030
ASTRA 1KR               
1 29055U 06012A   23055.11646510  .00000110  00000+0  00000+0 0  9999
2 29055   0.1041 276.7313 0003383  10.0989 288.0070  1.00273850 33605
AMC-18                  
1 29644U 06054B   23055.29450524 -.00000225  00000+0  00000+0 0  9994
2 29644   0.0484 297.1949 0002464  44.5990 195.0984  1.00271871 59413
ASTRA 1L                
1 31306U 07016A   23055.21994083  .00000110  00000+0  00000+0 0  9998
2 31306   0.1143 293.0272 0005268  16.7277 302.4329  1.00274180 32887
ASTRA 4A (SIRIUS 4)     
1 32299U 07057A   23055.46854981  .00000023  00000+0  00000+0 0  9997
2 32299   0.0440 298.5050 0002570  21.8758   7.1449  1.00271311 39541
AMC-21                  
1 33275U 08038B   23055.52684248  .00000027  00000+0  00000+0 0  9990
2 33275   0.0466 297.9247 0002596  44.3888 236.5447  1.00271426 53377
ASTRA 1M                
1 33436U 08057A   23055.21994083  .00000109  00000+0  00000+0 0  9998
2 33436   0.0208 107.2215 0000353 266.8581 238.0502  1.00270764 33605
CIEL-2                  
1 33453U 08063A   23055.50471978  .00000049  00000+0  00000+0 0  9992
2 33453   0.0493 268.7896 0003186  77.9773 220.1569  1.00272356 52019
NSS-9                   
1 33749U 09008A   23055.64260602  .00000062  00000+0  00000+0 0  9990
2 33749   0.0010 240.1688 0002139  84.0755 244.3809  1.00272585 51446
SES-7 (PROTOSTAR 2)     
1 34941U 09027A   23055.58215581 -.00000354  00000+0  00000+0 0  9990
2 34941   0.0193  94.5547 0002008 197.2460 180.1824  1.00270253 50503
NSS-12                  
1 36032U 09058A   23055.57271722  .00000062  00000+0  00000+0 0  9990
2 36032   0.0148  90.0945 0002767 248.8951  78.3404  1.00272921 48793
SES-1                   
1 36516U 10016A   23055.54920559 -.00000124  00000+0  00000+0 0  9999
2 36516   0.0455 311.8418 0002437  18.3303 280.6667  1.00271404 47013
ASTRA 3B                
1 36581U 10021A   23055.27757825  .00000127  00000+0  00000+0 0  9993
2 36581   0.0623  54.4426 0002828 272.8431 310.0095  1.00275308 46754
SES-3                   
1 37748U 11035A   23053.33261024 -.00000115  00000+0  00000+0 0  9999
2 37748   0.0580 296.5123 0002422  26.9751 205.1791  1.00270322 42459
ASTRA 1N                
1 37775U 11041A   23055.21994083  .00000109  00000+0  00000+0 0  9995
2 37775   0.0537  25.0077 0004828 342.4449 244.7065  1.00270975 32407
SES-2                   
1 37809U 11049A   23053.31507822 -.00000209  00000+0  00000+0 0  9993
2 37809   0.0340 296.7328 0002616  31.1345 210.4872  1.00270440 41811
QUETZSAT 1              
1 37826U 11054A   23055.38020081 -.00000251  00000+0  00000+0 0  9991
2 37826   0.0158 317.5045 0002649  22.0585 234.2583  1.00269907 41972
SES-4                   
1 38087U 12007A   23055.25882516 -.00000178  00000+0  00000+0 0  9993
2 38087   0.0221  84.5448 0002373 245.4167 255.0497  1.00270837 40116
SES-5                   
1 38652U 12036A   23055.46854981  .00000024  00000+0  00000+0 0  9990
2 38652   0.0503 301.4165 0001984  23.2293   3.0563  1.00272434 38941
ASTRA 2F                
1 38778U 12051A   23055.28868718  .00000140  00000+0  00000+0 0  9998
2 38778   0.0990 257.0688 0002838   6.5256  22.3962  1.00274872 29000
SES-6                   
1 39172U 13026A   23055.49077038 -.00000271  00000+0  00000+0 0  9996
2 39172   0.0152 279.8418 0002492  50.4336 319.9951  1.00269440 35606
O3B FM5                 
1 39188U 13031A   23055.33934995 -.00000025  00000+0  00000+0 0  9993
2 39188   0.0655 356.4565 0002914 342.4539  21.0710  5.00115431176563
O3B FM4                 
1 39189U 13031B   23054.99543263 -.00000025  00000+0  00000+0 0  9999
2 39189   0.0383   2.9492 0002858 335.6754  21.3569  5.00115921176563
O3B FM2                 
1 39190U 13031C   23055.28693804 -.00000025  00000+0  00000+0 0  9991
2 39190   0.0333   3.4563 0002803 333.3842  23.1404  5.00115170176630
O3B PFM                 
1 39191U 13031D   23055.31305528 -.00000025  00000+0  00000+0 0  9999
2 39191   0.0570 359.3540 0002696 334.1754  26.4504  5.00115950176197
ASTRA 2E                
1 39285U 13056A   23055.28868718  .00000140  00000+0  00000+0 0  9998
2 39285   0.0668 334.5000 0002225 358.9683 312.8788  1.00275958 34312
SES-8                   
1 39460U 13071A   23055.53660289 -.00000279  00000+0  00000+0 0  9995
2 39460   0.0502 270.5855 0001501  91.7559  79.9507  1.00273928 32303
ASTRA 5B                
1 39617U 14011B   23055.28868718  .00000144  00000+0  00000+0 0  9993
2 39617   0.0661 305.9024 0003174  23.1160 320.2523  1.00271370 32544
O3B FM3                 
1 40079U 14038A   23055.16784628 -.00000025  00000+0  00000+0 0  9999
2 40079   0.0456 359.6587 0003565 292.1401  68.1567  5.00116692152560
O3B FM7                 
1 40080U 14038B   23055.31399575 -.00000025  00000+0  00000+0 0  9991
2 40080   0.0421 356.0016 0003593   8.1079 355.8869  5.00115640157400
O3B FM6                 
1 40081U 14038C   23054.54086599 -.00000025  00000+0  00000+0 0  9995
2 40081   0.0451   0.7968 0002780 332.1939  26.9881  5.00115310157319
O3B FM8                 
1 40082U 14038D   23054.99445125 -.00000025  00000+0  00000+0 0  9999
2 40082   0.0424   3.1543 0002603 330.1941  26.6316  5.00115770157456
O3B FM10                
1 40348U 14083A   23055.42046092 -.00000025  00000+0  00000+0 0  9993
2 40348   0.0539   3.5133 0002697 330.6183  25.8485  5.00115220149429
O3B FM11                
1 40349U 14083B   23055.43384755 -.00000025  00000+0  00000+0 0  9996
2 40349   0.0539 358.4986 0003244 344.9150  16.5693  5.00115433149445
O3B FM12                
1 40350U 14083C   23055.26119874 -.00000025  00000+0  00000+0 0  9997
2 40350   0.0531 359.0642 0002909 334.9640  25.9506  5.00115349149448
O3B FM9                 
1 40351U 14083D   23055.28782299 -.00000025  00000+0  00000+0 0  9997
2 40351   0.0543 357.3569 0002745 338.4291  24.1946  5.00116148149593
ASTRA 2G                
1 40364U 14089A   23055.28868718  .00000139  00000+0  00000+0 0  9993
2 40364   0.0549 335.8061 0003748  43.7613 266.3979  1.00271783 29843
SES-9                   
1 41380U 16013A   23054.81785490 -.00000356  00000+0  00000+0 0  9996
2 41380   0.0512 287.8541 0001247 104.6490 163.6402  1.00271527 25317
SES-10                  
1 42432U 17017A   23054.49493660 -.00000284  00000+0  00000+0 0  9999
2 42432   0.0225  88.3237 0002727 242.6006 293.4317  1.00269155 21613
SES-15                  
1 42709U 17026A   23055.52625444  .00000051  00000+0  00000+0 0  9999
2 42709   0.0282   6.9147 0000368 310.0631 257.4254  1.00270145 22029
SES-11 (ECHOSTAR 105)   
1 42967U 17063A   23055.54587984 -.00000099  00000+0  00000+0 0  9997
2 42967   0.0483 296.5374 0002410  22.7327 286.4205  1.00271448 19689
SES-14                  
1 43175U 18012B   23055.49493764 -.00000288  00000+0  00000+0 0  9990
2 43175   0.0128 118.9980 0001014 187.0025 338.7777  1.00269276 18934
O3B FM15                
1 43231U 18024A   23055.15385343 -.00000025  00000+0  00000+0 0  9991
2 43231   0.0544   7.1251 0003023 325.0381  27.8141  5.00116369 90546
O3B FM16                
1 43232U 18024B   23055.40719602 -.00000025  00000+0  00000+0 0  9999
2 43232   0.0564  11.0067 0003033 322.9268  26.0448  5.00116073 90474
O3B FM14                
1 43233U 18024C   23055.44701780 -.00000025  00000+0  00000+0 0  9992
2 43233   0.0566  12.5073 0003048 324.6651  22.8076  5.00115550 90471
O3B FM13                
1 43234U 18024D   23054.30125104 -.00000025  00000+0  00000+0 0  9997
2 43234   0.0664 354.3268 0003767 332.7062  32.9367  5.00115077 90545
SES-12                  
1 43488U 18049A   23054.11091059 -.00000282  00000+0  00000+0 0  9990
2 43488   0.0140  70.7532 0002198 221.3765 355.4982  1.00270021 17281
O3B FM20                
1 44112U 19020A   23055.27380901 -.00000025  00000+0  00000+0 0  9995
2 44112   0.0531   3.8189 0003397 330.4875  25.6703  5.00115558 71094
O3B FM19                
1 44113U 19020B   23055.30071731 -.00000025  00000+0  00000+0 0  9998
2 44113   0.0668   7.3297 0003203 353.6290 359.0354  5.00114948 70962
O3B FM17                
1 44114U 19020C   23055.18117015 -.00000025  00000+0  00000+0 0  9991
2 44114   0.0435  24.4998 0003117 307.0787  28.3980  5.00115784 71041
O3B FM18                
1 44115U 19020D   23055.32753033 -.00000025  00000+0  00000+0 0  9994
2 44115   0.0534   3.5186 0002895 329.3014  27.1583  5.00115921 71174
SES-17                  
1 49332U 21095A   23055.68457069 -.00000281  00000+0  00000+0 0  9998
2 49332   0.0157 116.7751 0000963 210.6711   6.1685  1.00269731  5729
SES-22                  
1 52933U 22071A   23055.58337911  .00000079  00000+0  00000+0 0  9990
2 52933   0.0141 207.9346 0002641 119.0099 262.2327  1.00273766  2427
SES-20                  
1 53960U 22123A   23054.19215965 -.00000113  00000+0  00000+0 0  9999
2 53960   0.0391 130.9004 0001198 201.0442 146.9555  1.00271778  1411
SES-21                  
1 53961U 22123B   23054.20882652  .00000057  00000+0  00000+0 0  9991
2 53961   0.0221  86.1093 0001192 244.5685 126.3169  1.00272840  1435
O3B MPOWER-A F1         
1 54755U 22174A   23055.41919785 -.00000007  00000+0  00000+0 0  9997
2 54755   4.6456 179.6729 0993959 341.2920  15.3773  5.94854995  4636
O3B MPOWER-A F2         
1 54756U 22174B   23055.77048406 -.00000012  00000+0  00000+0 0  9996
2 54756   3.6886 182.4453 0834001 334.8617  21.2551  5.69839248  4830
